STARLINK-34629          
1 64790U 25150A   25225.58335648  .00050455  00000+0  11490-2 0  9992
2 64790  69.9998 320.9832 0003426 270.8927 318.5532 15.42685615  5763
STARLINK-34697          
1 64791U 25150B   25225.58335648 -.01773383  00000+0 -36057-1 0  9993
2 64791  69.9995 320.8023 0003777 271.0611 117.2280 15.49509279  5766
STARLINK-34632          
1 64792U 25150C   25224.67608756  .00146221  00000+0  13666-2 0  9990
2 64792  69.9987 322.8703 0004217 277.6325  82.4390 15.66660817  4678
STARLINK-34693          
1 64793U 25150D   25225.57687289  .00123266  00000+0  19677-2 0  9991
2 64793  70.0017 320.8124 0002532 281.8430  78.2472 15.52630648  4806
STARLINK-34666          
1 64794U 25150E   25225.58335648  .00052969  00000+0  12055-2 0  9996
2 64794  69.9998 320.9311 0003303 273.2426   1.1844 15.42691124  5767
STARLINK-34567          
1 64795U 25150F   25225.58335648 -.00812335  00000+0 -19904-1 0  9999
2 64795  69.9994 320.8277 0003057 268.6545  95.5669 15.43238578  5763
STARLINK-34646          
1 64796U 25150G   25225.57584304  .00115590  00000+0  18477-2 0  9996
2 64796  70.0013 320.8068 0003369 272.2643  87.8158 15.52619896  5698
STARLINK-34641          
1 64797U 25150H   25225.57551860  .00087008  00000+0  14008-2 0  9996
2 64797  70.0007 320.8056 0003383 270.0529  90.0270 15.52534257  5636
STARLINK-34649          
1 64798U 25150J   25225.58335648  .00046404  00000+0  10574-2 0  9991
2 64798  69.9999 320.9051 0003171 266.5129  30.9107 15.42691368  5763
STARLINK-34662          
1 64799U 25150K   25225.58335648  .00049029  00000+0  11168-2 0  9998
2 64799  69.9999 320.9572 0003278 270.0654 341.3737 15.42687238  5762
STARLINK-34660          
1 64800U 25150L   25225.58335648  .00051406  00000+0  11709-2 0  9994
2 64800  69.9999 320.8529 0003851 273.1447  69.3292 15.42673073  5762
STARLINK-34604          
1 64801U 25150M   25225.58335648 -.02044262  00000+0 -48261-1 0  9993
2 64801  69.9991 320.8021 0003814 286.1028  99.0258 15.45158664  5769
STARLINK-34658          
1 64802U 25150N   25225.57378814  .00118060  00000+0  18866-2 0  9998
2 64802  70.0009 320.7987 0003414 282.7849  77.2956 15.52618694  4801
STARLINK-34620          
1 64803U 25150P   25225.57344123  .00073513  00000+0  11853-2 0  9997
2 64803  69.9998 320.7971 0003653 274.3082  85.7688 15.52548953  4806
STARLINK-34633          
1 64804U 25150Q   25225.57310196  .00121274  00000+0  19368-2 0  9998
2 64804  70.0017 320.7962 0003105 284.9616  75.1227 15.52623894  4804
STARLINK-34624          
1 64805U 25150R   25225.58335648  .00057227  00000+0  13022-2 0  9996
2 64805  69.9993 320.8123 0003400 272.9298 103.5413 15.42672520  5607
STARLINK-34664          
1 64806U 25150S   25224.92852932 -.00076665  00000+0 -12734-2 0  9992
2 64806  70.0006 322.5594 0004735 300.2326  59.8391 15.52115804  4702
STARLINK-34663          
1 64807U 25150T   25225.58335648 -.00071982  00000+0 -16542-2 0  9994
2 64807  69.9995 320.8656 0003500 272.7113  58.7775 15.42735659  5769
STARLINK-34696          
1 64808U 25150U   25225.58335648 -.01741089  00000+0 -35271-1 0  9997
2 64808  69.9997 320.7636 0003981 281.4484 139.5500 15.49546743  5765
STARLINK-34675          
1 64809U 25150V   25225.58335648  .00051433  00000+0  11711-2 0  9996
2 64809  69.9999 320.9172 0003165 268.3668  17.0626 15.42685297  5767
STARLINK-34608          
1 64810U 25150W   25225.58335648  .00056779  00000+0  12913-2 0  9991
2 64810  69.9997 320.8902 0003424 276.5355  31.8852 15.42691472  5766
STARLINK-34669          
1 64811U 25150X   25225.57079075  .00077037  00000+0  12770-2 0  9991
2 64811  70.0003 320.7863 0005238 313.1384  46.9364 15.51751806  4805
STARLINK-34644          
1 64812U 25150Y   25225.56454599  .00080645  00000+0  12186-2 0  9999
2 64812  70.0004 320.7635 0003605 275.8220  84.2557 15.54316143  4806
STARLINK-34685          
1 64813U 25150Z   25225.57000842  .00075818  00000+0  12215-2 0  9998
2 64813  70.0001 320.7835 0003850 272.5231  87.5515 15.52560073  4805
STARLINK-34668          
1 64814U 25150AA  25225.56932505  .00078384  00000+0  12627-2 0  9996
2 64814  70.0005 320.7807 0003492 273.8107  86.2680 15.52553529  4804
STARLINK-34667          
1 64815U 25150AB  25225.56967065  .00115082  00000+0  18398-2 0  9994
2 64815  70.0013 320.7835 0003184 276.1319  83.9505 15.52619077  4805
KUIPER-00069            
1 64816U 25151A   25224.92304238  .00038552  00000+0  10863-2 0  9997
2 64816  51.8790 154.2243 0004646 232.2263 127.8303 15.36052320  5420
KUIPER-00070            
1 64817U 25151B   25225.58335648 -.00016567  00000+0 -74180-3 0  9997
2 64817  51.8895 152.1097 0006226 268.0427   5.4515 15.20165405  4300
KUIPER-00071            
1 64818U 25151C   25225.58335648 -.01127353  00000+0 -47781-1 0  9990
2 64818  51.8817 151.4403 0002935 236.8236 325.4961 15.25746740  3886
KUIPER-00072            
1 64819U 25151D   25223.23850432  .00063582  00000+0  17991-2 0  9995
2 64819  51.8832 162.4310 0006052 247.1520 112.8828 15.35689118  3985
KUIPER-00073            
1 64820U 25151E   25225.58335648 -.00964274  00000+0 -39400-1 0  9992
2 64820  51.8825 151.4666 0007393 259.5633 321.4322 15.26458593  4420
KUIPER-00074            
1 64821U 25151F   25225.38314622  .00030725  00000+0  87640-3 0  9994
2 64821  51.8763 152.0536 0004569 249.1428 110.9069 15.35781261  4312
KUIPER-00075            
1 64822U 25151G   25225.58335648  .00039064  00000+0  10813-2 0  9990
2 64822  51.8790 151.0608 0004511 236.6379 168.0466 15.36601822  4180
KUIPER-00076            
1 64823U 25151H   25224.92977077  .00035000  00000+0  10012-2 0  9993
2 64823  51.8787 154.2636 0004545 235.3474 124.7084 15.35626198  4246
KUIPER-00077            
1 64824U 25151J   25225.12745611  .00015158  00000+0  44144-3 0  9990
2 64824  51.8802 153.3468 0005403 253.9503 106.0888 15.35586949  4278
KUIPER-00078            
1 64825U 25151K   25225.32211073  .00041708  00000+0  11891-2 0  9995
2 64825  51.8792 152.3951 0005244 255.1964 104.8441 15.35645542  4301
KUIPER-00079            
1 64826U 25151L   25225.58335648 -.00668925  00000+0 -23613-1 0  9991
2 64826  51.8804 151.0775 0005053 235.9427 150.8350 15.31117238  3888
KUIPER-00080            
1 64827U 25151M   25225.58335648  .00050332  00000+0  16282-2 0  9992
2 64827  51.8807 151.1370 0003027 246.9947 126.1709 15.31561429  4499
KUIPER-00082            
1 64828U 25151N   25225.50907104  .00033681  00000+0  94946-3 0  9999
2 64828  51.8793 151.4013 0005349 239.0636 120.9824 15.36100239  4334
KUIPER-00083            
1 64829U 25151P   25225.32096076  .00035114  00000+0  10025-2 0  9995
2 64829  51.8783 152.3862 0004732 244.2569 115.7929 15.35685470  5494
KUIPER-00084            
1 64830U 25151Q   25225.58335648 -.01122772  00000+0 -55975-1 0  9998
2 64830  51.8862 151.9882 0006547 248.6238  37.5988 15.19776822  4060
KUIPER-00085            
1 64831U 25151R   25225.50677565  .00028131  00000+0  79297-3 0  9994
2 64831  51.8793 151.3887 0006282 237.7279 122.3099 15.36189713  4335
KUIPER-00086            
1 64832U 25151S   25225.51885589  .00027071  00000+0  77987-3 0  9999
2 64832  51.8774 151.4640 0005511 258.7500 101.2866 15.35533601  4333
KUIPER-00087            
1 64833U 25151T   25225.31577194  .00036592  00000+0  10353-2 0  9999
2 64833  51.8777 152.3584 0004667 228.5113 131.5473 15.35948903  4302
KUIPER-00089            
1 64834U 25151U   25225.45119081  .00047655  00000+0  13539-2 0  9993
2 64834  51.8740 151.7665 0003999 267.0287  93.0242 15.35700021  4328
KUIPER-00090            
1 64835U 25151V   25225.19491567  .00032231  00000+0  92946-3 0  9991
2 64835  51.8806 153.0459 0005525 258.0808 101.9559 15.35409758  4282
KUIPER-00091            
1 64836U 25151W   25225.50822424  .00025870  00000+0  73390-3 0  9990
2 64836  51.8786 151.3947 0005203 232.5138 127.5375 15.36041761  4332
KUIPER-00092            
1 64837U 25151X   25225.18604118  .00048913  00000+0  13770-2 0  9991
2 64837  51.8762 152.9830 0005004 239.3091 120.7403 15.35970120  5491
KUIPER-00093            
1 64838U 25151Y   25225.51546798  .00027977  00000+0  80026-3 0  9994
2 64838  51.8791 151.4488 0005963 250.8823 109.1518 15.35736227  4330
KUIPER-00094            
1 64839U 25151Z   25225.44583584  .00029852  00000+0  84707-3 0  9995
2 64839  51.8767 151.7242 0005137 240.0348 120.0129 15.35957407  4325
LEMUR-2-HUBBLE-5        
1 64840U 25135BT  25225.55334561  .00001601  00000+0  16127-3 0  9993
2 64840  97.7489 339.1369 0004321 284.8162  75.2578 14.92530475  7992
LEMUR-2-KARENDARRELL    
1 64841U 25135BU  25225.55577150  .00006482  00000+0  62916-3 0  9996
2 64841  97.7518 339.1419 0008920 162.5616 197.5911 14.92943656  7995
STARLINK-34723          
1 64842U 25152A   25225.58335648  .00078435  00000+0  14314-2 0  9998
2 64842  97.6042  78.9517 0001604  84.3755 213.0644 15.49150272  4734
STARLINK-34725          
1 64843U 25152B   25225.58335648 -.01899118  00000+0 -40666-1 0  9999
2 64843  97.6039  78.9513 0002020 104.3231 194.2781 15.47868869  4628
STARLINK-34709          
1 64844U 25152C   25225.58335648  .00081391  00000+0  14847-2 0  9996
2 64844  97.6043  78.9537 0001581  86.0720 215.2630 15.49150734  4736
STARLINK-34706          
1 64845U 25152D   25225.58335648  .00075362  00000+0  13759-2 0  9999
2 64845  97.6041  78.9541 0001622  88.4080 214.8760 15.49151005  4620
STARLINK-34736          
1 64846U 25152E   25225.58335648  .00071666  00000+0  13090-2 0  9991
2 64846  97.6041  78.9548 0001694  87.1083 218.1242 15.49153620  4623
STARLINK-34746          
1 64847U 25152F   25225.58335648  .00086299  00000+0  15730-2 0  9993
2 64847  97.6046  78.9568 0001494  81.5001 225.6737 15.49153251  4629
STARLINK-34748          
1 64848U 25152G   25225.58335648 -.01897219  00000+0 -40583-1 0  9992
2 64848  97.6038  78.9556 0001955  99.9694 208.4090 15.47896157  4629
